CCSDS_OMM_VERS = 2.0
CREATION_DATE  = 
ORIGINATOR     = 

OBJECT_NAME    = 2025-313Z
OBJECT_ID      = 2025-313Z
CENTER_NAME    = EARTH
REF_FRAME      = TEME
TIME_SYSTEM    = UTC
MEAN_ELEMENT_THEORY = SGP/SGP4

EPOCH          = 2026-01-16T05:48:43.761024
MEAN_MOTION    = 15.20021956
ECCENTRICITY   = .001572
INCLINATION    = 97.4116
RA_OF_ASC_NODE = 93.3781
ARG_OF_PERICENTER = 168.6809
MEAN_ANOMALY   = 191.4782

EPHEMERIS_TYPE = 0
CLASSIFICATION_TYPE = U
NORAD_CAT_ID   = 67271
ELEMENT_SET_NO = 999
REV_AT_EPOCH   = 284
BSTAR          = .15916585E-3
MEAN_MOTION_DOT = .3372E-4
MEAN_MOTION_DDOT = 0

CCSDS_OMM_VERS = 2.0
CREATION_DATE  = 
ORIGINATOR     = 

OBJECT_NAME    = 2025-313AA
OBJECT_ID      = 2025-313AA
CENTER_NAME    = EARTH
REF_FRAME      = TEME
TIME_SYSTEM    = UTC
MEAN_ELEMENT_THEORY = SGP/SGP4

EPOCH          = 2026-01-16T05:45:01.869408
MEAN_MOTION    = 15.20371097
ECCENTRICITY   = .00154279
INCLINATION    = 97.4121
RA_OF_ASC_NODE = 93.3801
ARG_OF_PERICENTER = 173.1338
MEAN_ANOMALY   = 187.0112

EPHEMERIS_TYPE = 0
CLASSIFICATION_TYPE = U
NORAD_CAT_ID   = 67272
ELEMENT_SET_NO = 999
REV_AT_EPOCH   = 284
BSTAR          = .36946188E-3
MEAN_MOTION_DOT = .8003E-4
MEAN_MOTION_DDOT = 0

CCSDS_OMM_VERS = 2.0
CREATION_DATE  = 
ORIGINATOR     = 

OBJECT_NAME    = 2025-313AB
OBJECT_ID      = 2025-313AB
CENTER_NAME    = EARTH
REF_FRAME      = TEME
TIME_SYSTEM    = UTC
MEAN_ELEMENT_THEORY = SGP/SGP4

EPOCH          = 2026-01-16T05:48:33.556320
MEAN_MOTION    = 15.20004664
ECCENTRICITY   = .00146352
INCLINATION    = 97.4134
RA_OF_ASC_NODE = 93.3816
ARG_OF_PERICENTER = 177.0387
MEAN_ANOMALY   = 183.0938

EPHEMERIS_TYPE = 0
CLASSIFICATION_TYPE = U
NORAD_CAT_ID   = 67273
ELEMENT_SET_NO = 999
REV_AT_EPOCH   = 284
BSTAR          = .11922369E-3
MEAN_MOTION_DOT = .2506E-4
MEAN_MOTION_DDOT = 0

CCSDS_OMM_VERS = 2.0
CREATION_DATE  = 
ORIGINATOR     = 

OBJECT_NAME    = 2025-313AC
OBJECT_ID      = 2025-313AC
CENTER_NAME    = EARTH
REF_FRAME      = TEME
TIME_SYSTEM    = UTC
MEAN_ELEMENT_THEORY = SGP/SGP4

EPOCH          = 2026-01-16T05:46:45.693696
MEAN_MOTION    = 15.20174961
ECCENTRICITY   = .00153947
INCLINATION    = 97.4110
RA_OF_ASC_NODE = 93.3860
ARG_OF_PERICENTER = 172.0788
MEAN_ANOMALY   = 188.0693

EPHEMERIS_TYPE = 0
CLASSIFICATION_TYPE = U
NORAD_CAT_ID   = 67274
ELEMENT_SET_NO = 999
REV_AT_EPOCH   = 284
BSTAR          = .22440022E-3
MEAN_MOTION_DOT = .4804E-4
MEAN_MOTION_DDOT = 0

CCSDS_OMM_VERS = 2.0
CREATION_DATE  = 
ORIGINATOR     = 

OBJECT_NAME    = 2025-313AD
OBJECT_ID      = 2025-313AD
CENTER_NAME    = EARTH
REF_FRAME      = TEME
TIME_SYSTEM    = UTC
MEAN_ELEMENT_THEORY = SGP/SGP4

EPOCH          = 2026-01-16T05:45:47.833344
MEAN_MOTION    = 15.20236127
ECCENTRICITY   = .00146122
INCLINATION    = 97.4085
RA_OF_ASC_NODE = 93.3811
ARG_OF_PERICENTER = 174.9299
MEAN_ANOMALY   = 185.2087

EPHEMERIS_TYPE = 0
CLASSIFICATION_TYPE = U
NORAD_CAT_ID   = 67275
ELEMENT_SET_NO = 999
REV_AT_EPOCH   = 284
BSTAR          = .22981227E-3
MEAN_MOTION_DOT = .4929E-4
MEAN_MOTION_DDOT = 0

CCSDS_OMM_VERS = 2.0
CREATION_DATE  = 
ORIGINATOR     = 

OBJECT_NAME    = 2025-313AE
OBJECT_ID      = 2025-313AE
CENTER_NAME    = EARTH
REF_FRAME      = TEME
TIME_SYSTEM    = UTC
MEAN_ELEMENT_THEORY = SGP/SGP4

EPOCH          = 2026-01-16T05:45:44.930304
MEAN_MOTION    = 15.20235640
ECCENTRICITY   = .00145547
INCLINATION    = 97.4090
RA_OF_ASC_NODE = 93.3819
ARG_OF_PERICENTER = 174.9714
MEAN_ANOMALY   = 185.1670

EPHEMERIS_TYPE = 0
CLASSIFICATION_TYPE = U
NORAD_CAT_ID   = 67276
ELEMENT_SET_NO = 999
REV_AT_EPOCH   = 284
BSTAR          = .23858187E-3
MEAN_MOTION_DOT = .5119E-4
MEAN_MOTION_DDOT = 0

CCSDS_OMM_VERS = 2.0
CREATION_DATE  = 
ORIGINATOR     = 

OBJECT_NAME    = 2025-313AF
OBJECT_ID      = 2025-313AF
CENTER_NAME    = EARTH
REF_FRAME      = TEME
TIME_SYSTEM    = UTC
MEAN_ELEMENT_THEORY = SGP/SGP4

EPOCH          = 2026-01-16T05:46:06.045600
MEAN_MOTION    = 15.20200663
ECCENTRICITY   = .00145495
INCLINATION    = 97.4092
RA_OF_ASC_NODE = 93.3823
ARG_OF_PERICENTER = 174.7961
MEAN_ANOMALY   = 185.3429

EPHEMERIS_TYPE = 0
CLASSIFICATION_TYPE = U
NORAD_CAT_ID   = 67277
ELEMENT_SET_NO = 999
REV_AT_EPOCH   = 284
BSTAR          = .21844713E-3
MEAN_MOTION_DOT = .4676E-4
MEAN_MOTION_DDOT = 0

CCSDS_OMM_VERS = 2.0
CREATION_DATE  = 
ORIGINATOR     = 

OBJECT_NAME    = 2025-313AG
OBJECT_ID      = 2025-313AG
CENTER_NAME    = EARTH
REF_FRAME      = TEME
TIME_SYSTEM    = UTC
MEAN_ELEMENT_THEORY = SGP/SGP4

EPOCH          = 2026-01-16T05:45:50.877216
MEAN_MOTION    = 15.20217536
ECCENTRICITY   = .00145166
INCLINATION    = 97.4094
RA_OF_ASC_NODE = 93.3833
ARG_OF_PERICENTER = 174.6703
MEAN_ANOMALY   = 185.4690

EPHEMERIS_TYPE = 0
CLASSIFICATION_TYPE = U
NORAD_CAT_ID   = 67278
ELEMENT_SET_NO = 999
REV_AT_EPOCH   = 285
BSTAR          = .22083965E-3
MEAN_MOTION_DOT = .4731E-4
MEAN_MOTION_DDOT = 0

CCSDS_OMM_VERS = 2.0
CREATION_DATE  = 
ORIGINATOR     = 

OBJECT_NAME    = GALAPAGOS-UTE-SWSU
OBJECT_ID      = 2025-313AH
CENTER_NAME    = EARTH
REF_FRAME      = TEME
TIME_SYSTEM    = UTC
MEAN_ELEMENT_THEORY = SGP/SGP4

EPOCH          = 2026-01-16T04:10:06.712320
MEAN_MOTION    = 15.20293313
ECCENTRICITY   = .00150726
INCLINATION    = 97.4106
RA_OF_ASC_NODE = 93.3219
ARG_OF_PERICENTER = 171.9443
MEAN_ANOMALY   = 188.2037

EPHEMERIS_TYPE = 0
CLASSIFICATION_TYPE = U
NORAD_CAT_ID   = 67279
ELEMENT_SET_NO = 999
REV_AT_EPOCH   = 283
BSTAR          = .23923334E-3
MEAN_MOTION_DOT = .5143E-4
MEAN_MOTION_DDOT = 0

CCSDS_OMM_VERS = 2.0
CREATION_DATE  = 
ORIGINATOR     = 

OBJECT_NAME    = 2025-313AJ
OBJECT_ID      = 2025-313AJ
CENTER_NAME    = EARTH
REF_FRAME      = TEME
TIME_SYSTEM    = UTC
MEAN_ELEMENT_THEORY = SGP/SGP4

EPOCH          = 2026-01-16T05:38:57.276960
MEAN_MOTION    = 15.20585790
ECCENTRICITY   = .00140054
INCLINATION    = 97.4175
RA_OF_ASC_NODE = 93.3967
ARG_OF_PERICENTER = 168.3039
MEAN_ANOMALY   = 191.8524

EPHEMERIS_TYPE = 0
CLASSIFICATION_TYPE = U
NORAD_CAT_ID   = 67280
ELEMENT_SET_NO = 999
REV_AT_EPOCH   = 284
BSTAR          = .19175297E-3
MEAN_MOTION_DOT = .4142E-4
MEAN_MOTION_DDOT = 0

CCSDS_OMM_VERS = 2.0
CREATION_DATE  = 
ORIGINATOR     = 

OBJECT_NAME    = 2025-313AK
OBJECT_ID      = 2025-313AK
CENTER_NAME    = EARTH
REF_FRAME      = TEME
TIME_SYSTEM    = UTC
MEAN_ELEMENT_THEORY = SGP/SGP4

EPOCH          = 2026-01-16T05:37:21.289152
MEAN_MOTION    = 15.20677171
ECCENTRICITY   = .00127302
INCLINATION    = 97.4059
RA_OF_ASC_NODE = 93.3805
ARG_OF_PERICENTER = 167.0796
MEAN_ANOMALY   = 193.0768

EPHEMERIS_TYPE = 0
CLASSIFICATION_TYPE = U
NORAD_CAT_ID   = 67281
ELEMENT_SET_NO = 999
REV_AT_EPOCH   = 284
BSTAR          = .192337E-3
MEAN_MOTION_DOT = .4164E-4
MEAN_MOTION_DDOT = 0

CCSDS_OMM_VERS = 2.0
CREATION_DATE  = 
ORIGINATOR     = 

OBJECT_NAME    = 2025-313AL
OBJECT_ID      = 2025-313AL
CENTER_NAME    = EARTH
REF_FRAME      = TEME
TIME_SYSTEM    = UTC
MEAN_ELEMENT_THEORY = SGP/SGP4

EPOCH          = 2026-01-16T05:30:54.226656
MEAN_MOTION    = 15.21055906
ECCENTRICITY   = .00115087
INCLINATION    = 97.4109
RA_OF_ASC_NODE = 93.3864
ARG_OF_PERICENTER = 166.0036
MEAN_ANOMALY   = 194.1520

EPHEMERIS_TYPE = 0
CLASSIFICATION_TYPE = U
NORAD_CAT_ID   = 67282
ELEMENT_SET_NO = 999
REV_AT_EPOCH   = 284
BSTAR          = .20125665E-3
MEAN_MOTION_DOT = .4408E-4
MEAN_MOTION_DDOT = 0

