2025-313Z               
1 67271U 25313Z   26016.24217316  .00003372  00000+0  15917-3 0  9998
2 67271  97.4116  93.3781 0015720 168.6809 191.4782 15.20021956  2844
2025-313AA              
1 67272U 25313AA  26016.23960497  .00008003  00000+0  36946-3 0  9994
2 67272  97.4121  93.3801 0015427 173.1338 187.0112 15.20371097  2848
2025-313AB              
1 67273U 25313AB  26016.24205505  .00002506  00000+0  11922-3 0  9997
2 67273  97.4134  93.3816 0014635 177.0387 183.0938 15.20004664  2841
2025-313AC              
1 67274U 25313AC  26016.24080664  .00004804  00000+0  22440-3 0  9995
2 67274  97.4110  93.3860 0015394 172.0788 188.0693 15.20174961  2849
2025-313AD              
1 67275U 25313AD  26016.24013696  .00004929  00000+0  22981-3 0  9995
2 67275  97.4085  93.3811 0014612 174.9299 185.2087 15.20236127  2846
2025-313AE              
1 67276U 25313AE  26016.24010336  .00005119  00000+0  23858-3 0  9990
2 67276  97.4090  93.3819 0014554 174.9714 185.1670 15.20235640  2844
2025-313AF              
1 67277U 25313AF  26016.24034775  .00004676  00000+0  21845-3 0  9995
2 67277  97.4092  93.3823 0014549 174.7961 185.3429 15.20200663  2849
2025-313AG              
1 67278U 25313AG  26016.24017219  .00004731  00000+0  22084-3 0  9998
2 67278  97.4094  93.3833 0014516 174.6703 185.4690 15.20217536  2859
GALAPAGOS-UTE-SWSU      
1 67279U 25313AH  26016.17368880  .00005143  00000+0  23923-3 0  9995
2 67279  97.4106  93.3219 0015072 171.9443 188.2037 15.20293313  2832
2025-313AJ              
1 67280U 25313AJ  26016.23538515  .00004142  00000+0  19175-3 0  9990
2 67280  97.4175  93.3967 0014005 168.3039 191.8524 15.20585790  2841
2025-313AK              
1 67281U 25313AK  26016.23427418  .00004164  00000+0  19234-3 0  9990
2 67281  97.4059  93.3805 0012730 167.0796 193.0768 15.20677171  2842
2025-313AL              
1 67282U 25313AL  26016.22979429  .00004408  00000+0  20126-3 0  9997
2 67282  97.4109  93.3864 0011508 166.0036 194.1520 15.21055906  2847
